QIANFAN-96              
1 66038U 25233F   25309.91688495  .00000742  00000+0  30373-3 0  9998
2 66038  88.9952  66.2693 0016138 151.7008 208.5065 14.26157631  2799
QIANFAN-97              
1 66039U 25233G   25309.91678526  .00000742  00000+0  30376-3 0  9996
2 66039  88.9952  66.2693 0015707 151.1682 209.0383 14.26163550  2799
QIANFAN-98              
1 66040U 25233H   25309.91652047  .00000741  00000+0  30300-3 0  9994
2 66040  88.9952  66.2694 0015342 149.9249 210.2829 14.26184992  2793
QIANFAN-99              
1 66041U 25233J   25309.91637836  .00000744  00000+0  30424-3 0  9994
2 66041  88.9952  66.2692 0015480 149.0588 211.1521 14.26200510  2796
QIANFAN-100             
1 66042U 25233K   25309.91629295  .00000742  00000+0  30330-3 0  9999
2 66042  88.9952  66.2693 0015931 150.7064 209.5026 14.26216085  2792
QIANFAN-101             
1 66043U 25233L   25309.91355257  .00000455  00000+0  18231-3 0  9991
2 66043  88.9952  66.2688 0015882 148.9341 211.2795 14.26636087  2790
QIANFAN-102             
1 66044U 25233M   25309.91618456  .00000753  00000+0  30796-3 0  9996
2 66044  88.9952  66.2692 0016298 150.8003 209.4105 14.26220310  2797
QIANFAN-103             
1 66045U 25233N   25309.91586930  .00000764  00000+0  31236-3 0  9990
2 66045  88.9952  66.2693 0015687 149.5884 210.6223 14.26249556  2790
QIANFAN-104             
1 66046U 25233P   25309.91563808  .00000763  00000+0  31182-3 0  9999
2 66046  88.9952  66.2693 0015671 151.8376 208.3669 14.26270305  2790
QIANFAN-105             
1 66047U 25233Q   25309.91522893  .00000741  00000+0  30227-3 0  9994
2 66047  88.9952  66.2690 0015865 151.9716 208.2336 14.26328590  2792
QIANFAN-106             
1 66048U 25233R   25309.91526183  .00000742  00000+0  30288-3 0  9999
2 66048  88.9952  66.2691 0015735 151.6457 208.5597 14.26311943  2795
QIANFAN-107             
1 66049U 25233S   25309.91504501  .00000739  00000+0  30154-3 0  9998
2 66049  88.9951  66.2690 0016521 149.8089 210.4060 14.26340819  2799
